deviceId,locationId,desc_,lat,lon,area,areatype,town,county,project_name
7524334637,KS-O30464,Jsene/AQNA-1000,22.726600000000001,120.340999999999994,大社工業區,工業區,大社區,高雄市,107年高雄市空氣品質感測物聯網布建計畫
7487422956,KS-O30321,Jsene/JsenePM,22.762200000000000,120.323300000000003,中崎里,一般社區,橋頭區,高雄市,107年高雄市空氣品質感測物聯網布建計畫
7504967303,KS-O30183,Jsene/AQNA-1000,22.727699999999999,120.319599999999994,加工出口區楠梓園區,鄰近工業區社區,楠梓區,高雄市,107年高雄市空氣品質感測物聯網布建計畫
7523081612,KS-O30448,Jsene/JsenePM,22.726299999999998,120.339900000000000,大社工業區,工業區,大社區,高雄市,107年高雄市空氣品質感測物聯網布建計畫
7504091703,KS-O30169,Jsene/JsenePM,22.724900000000002,120.324700000000007,大社工業區,鄰近工業區社區,楠梓區,高雄市,107年高雄市空氣品質感測物聯網布建計畫
7493442304,KS-O30163,Jsene/JsenePM,22.740500000000001,120.332999999999998,大社工業區,鄰近工業區社區,楠梓區,高雄市,107年高雄市空氣品質感測物聯網布建計畫
7481489700,KS-O30167,Jsene/JsenePM,22.727200000000000,120.330299999999994,大社工業區,鄰近工業區社區,楠梓區,高雄市,107年高雄市空氣品質感測物聯網布建計畫
7513366876,KS-O30491,Jsene/AQNA-1000,22.757700000000000,120.305700000000002,環保署橋頭測站,測站比對,橋頭區,高雄市,107年高雄市空氣品質感測物聯網布建計畫
7525326672,KS-O30005,Jsene/JsenePM,22.797300000000000,120.290599999999998,公園路,一般社區,岡山區,高雄市,107年高雄市空氣品質感測物聯網布建計畫
7487651318,KS-O30326,Jsene/AQNA-1000,22.745100000000001,120.287099999999995,頂鹽里,一般社區,橋頭區,高雄市,107年高雄市空氣品質感測物聯網布建計畫
7513206198,KS-O30309,Jsene/JsenePM,22.792500000000000,120.302400000000006,碧紅里,一般社區,岡山區,高雄市,107年高雄市空氣品質感測物聯網布建計畫
7494489664,KS-O30467,Jsene/JsenePM,22.725400000000000,120.338399999999993,大社工業區,工業區,大社區,高雄市,107年高雄市空氣品質感測物聯網布建計畫
7482322722,KS-O30165,Jsene/AQNA-1000,22.733200000000000,120.292500000000004,加工出口區楠梓園區,鄰近工業區社區,楠梓區,高雄市,107年高雄市空氣品質感測物聯網布建計畫
7518719679,KS-O30401,Jsene/JsenePM,22.787400000000002,120.333399999999997,安招里,一般社區,燕巢區,高雄市,107年高雄市空氣品質感測物聯網布建計畫
7503815920,KS-O30166,Jsene/AQNA-1000,22.728967999999998,120.315770700000002,加工出口區楠梓園區,鄰近工業區社區,楠梓區,高雄市,107年高雄市空氣品質感測物聯網布建計畫
7487303452,KS-O30315,Jsene/JsenePM,22.784400000000002,120.288499999999999,信義里,一般社區,岡山區,高雄市,107年高雄市空氣品質感測物聯網布建計畫
7525489912,KS-O30010,Jsene/AQNA-1000,22.751799999999999,120.331699999999998,清豐社區,一般社區,楠梓區,高雄市,107年高雄市空氣品質感測物聯網布建計畫
7487193130,KS-O30316,Jsene/JsenePM,22.782000000000000,120.284199999999998,劉厝里,一般社區,岡山區,高雄市,107年高雄市空氣品質感測物聯網布建計畫
7478714726,KS-O30469,Jsene/AQNA-1000,22.724799999999998,120.336900000000000,大社工業區,工業區,大社區,高雄市,107年高雄市空氣品質感測物聯網布建計畫
7519561245,KS-O30411,Jsene/JsenePM,22.759000000000000,120.346299999999999,鳳雄里,一般社區,燕巢區,高雄市,107年高雄市空氣品質感測物聯網布建計畫
7480243860,KS-O30088,Jsene/JsenePM,22.748000000000001,120.331100000000006,清豐里,一般社區,楠梓區,高雄市,107年高雄市空氣品質感測物聯網布建計畫
7491149710,KS-O30012,Jsene/JsenePM,22.722600000000000,120.316599999999994,加工出口區楠梓園區,鄰近工業區社區,楠梓區,高雄市,107年高雄市空氣品質感測物聯網布建計畫
7515331409,KS-O30494,Jsene/AQNA-1000,22.757700000000000,120.305700000000002,環保署橋頭測站,測站比對,橋頭區,高雄市,107年高雄市空氣品質感測物聯網布建計畫
7524754110,KS-O30008,Jsene/JsenePM,22.782200000000000,120.298699999999997,岡山南路,交通區,岡山區,高雄市,107年高雄市空氣品質感測物聯網布建計畫
7525180078,KS-O30013,Jsene/AQNA-1000,22.715800000000002,120.290199999999999,加工出口區楠梓園區,鄰近工業區社區,楠梓區,高雄市,107年高雄市空氣品質感測物聯網布建計畫
7487221986,KS-O30319,Jsene/AQNA-1000,22.764412000000000,120.301933800000000,橋頭工業用地,鄰近工業區社區,橋頭區,高雄市,107年高雄市空氣品質感測物聯網布建計畫
7487713475,KS-O30327,Jsene/JsenePM,22.741399999999999,120.313400000000001,加工出口區楠梓園區,鄰近工業區社區,橋頭區,高雄市,107年高雄市空氣品質感測物聯網布建計畫
7521898822,KS-O30436,Jsene/JsenePM,22.762899999999998,120.335400000000007,中崎里,一般社區,燕巢區,高雄市,107年高雄市空氣品質感測物聯網布建計畫
7513785359,KS-O30492,Jsene/AQNA-1000,22.733654000000001,120.328267900000000,環保署楠梓測站,測站比對,楠梓區,高雄市,107年高雄市空氣品質感測物聯網布建計畫
7504873793,KS-O30180,Jsene/JsenePM,22.731700000000000,120.322999999999993,加工出口區楠梓園區,鄰近工業區社區,楠梓區,高雄市,107年高雄市空氣品質感測物聯網布建計畫
7486824865,KS-O30311,Jsene/JsenePM,22.788000000000000,120.296400000000006,仁義里,一般社區,岡山區,高雄市,107年高雄市空氣品質感測物聯網布建計畫
7513424009,KS-O30313,Jsene/JsenePM,22.785799999999998,120.303100000000001,程香里,一般社區,岡山區,高雄市,107年高雄市空氣品質感測物聯網布建計畫
7522863555,KS-O30446,Jsene/AQNA-1000,22.728000000000002,120.338800000000006,大社工業區,工業區,大社區,高雄市,107年高雄市空氣品質感測物聯網布建計畫
7492877569,KS-O30471,Jsene/JsenePM,22.724100000000000,120.335099999999997,大社工業區,工業區,大社區,高雄市,107年高雄市空氣品質感測物聯網布建計畫
7525752074,KS-O30011,Jsene/JsenePM,22.732199999999999,120.283299999999997,清豐社區,一般社區,楠梓區,高雄市,107年高雄市空氣品質感測物聯網布建計畫
7519040357,KS-O30405,Jsene/JsenePM,22.781300000000002,120.339299999999994,角宿里,一般社區,燕巢區,高雄市,107年高雄市空氣品質感測物聯網布建計畫
7513916120,KS-O30324,Jsene/JsenePM,22.756900000000002,120.295699999999997,橋頭工業用地,鄰近工業區社區,橋頭區,高雄市,107年高雄市空氣品質感測物聯網布建計畫
7481993385,KS-O30178,Jsene/AQNA-1000,22.742300000000000,120.337500000000006,大社工業區,鄰近工業區社區,楠梓區,高雄市,107年高雄市空氣品質感測物聯網布建計畫
7490689726,KS-O30410,Jsene/JsenePM,22.761399999999998,120.359700000000004,鳳雄里,一般社區,燕巢區,高雄市,107年高雄市空氣品質感測物聯網布建計畫
7487931320,KS-O30329,Jsene/AQNA-1000,22.738900000000001,120.306500000000000,加工出口區楠梓園區,鄰近工業區社區,橋頭區,高雄市,107年高雄市空氣品質感測物聯網布建計畫
7491327480,KS-O30007,Jsene/JsenePM,22.784099999999999,120.277500000000003,介壽西路,交通區,岡山區,高雄市,107年高雄市空氣品質感測物聯網布建計畫
7492511830,KS-O30451,Jsene/AQNA-1000,22.744900000000001,120.347999999999999,保社里,一般社區,大社區,高雄市,107年高雄市空氣品質感測物聯網布建計畫
7511401744,KS-O30009,Jsene/AQNA-1000,22.758996000000000,120.307998600000005,成功路,一般社區,橋頭區,高雄市,107年高雄市空氣品質感測物聯網布建計畫
9020011960,KS-8000336,Jsene/AQNA-1000,22.762000000000000,120.278700000000001,橋頭工業用地,工業區,橋頭區,高雄市,108-109年高雄市空氣品質感測物聯網布建計畫
9019262784,KS-8000320,Jsene/AQNA-1000,22.776599999999998,120.360799999999998,燕巢工業用地,鄰近工業區社區,燕巢區,高雄市,108-109年高雄市空氣品質感測物聯網布建計畫
9030129459,KS-8000277,Jsene/AQNA-1000,22.779100000000000,120.281300000000002,橋頭工業用地,鄰近工業區社區,岡山區,高雄市,108-109年高雄市空氣品質感測物聯網布建計畫
9069346550,KS-8000388,Jsene/AQNA-1000,22.717199999999998,120.300799999999995,加工出口區楠梓園區,鄰近工業區社區,楠梓區,高雄市,108-109年高雄市空氣品質感測物聯網布建計畫
9011552533,KS-8000312,Jsene/AQNA-1000,22.785900000000002,120.351900000000001,燕巢工業用地,鄰近工業區社區,燕巢區,高雄市,108-109年高雄市空氣品質感測物聯網布建計畫
9024293954,KS-8000264,Jsene/AQNA-1000,22.791399999999999,120.307199999999995,市區感測點,交通區,岡山區,高雄市,108-109年高雄市空氣品質感測物聯網布建計畫
9068187062,KS-8000383,Jsene/AQNA-1000,22.717600000000001,120.297799999999995,加工出口區楠梓園區,鄰近工業區社區,楠梓區,高雄市,108-109年高雄市空氣品質感測物聯網布建計畫
9018945455,KS-8000334,Jsene/AQNA-1000,22.763500000000001,120.264300000000006,橋頭工業用地,鄰近工業區社區,梓官區,高雄市,108-109年高雄市空氣品質感測物聯網布建計畫
9019952392,KS-8000338,Jsene/AQNA-1000,22.764900000000001,120.281499999999994,橋頭工業用地,工業區,橋頭區,高雄市,108-109年高雄市空氣品質感測物聯網布建計畫
9369971870,KS-8000361,Jsene/AQNA-1000,22.764900000000001,120.267200000000003,橋頭工業用地,鄰近工業區社區,梓官區,高雄市,108-109年高雄市空氣品質感測物聯網布建計畫
9123100924,KS-8000639,Jsene/AQNA-1000,22.724634999999999,120.308890500000004,加工出口區楠梓園區,工業區,楠梓區,高雄市,108-109年高雄市空氣品質感測物聯網布建計畫
9068299034,KS-8000379,Jsene/AQNA-1000,22.719000000000001,120.284700000000001,加工出口區楠梓園區,鄰近工業區社區,楠梓區,高雄市,108-109年高雄市空氣品質感測物聯網布建計畫
9033588608,KS-8000220,Jsene/AQNA-1000,22.713000000000001,120.301699999999997,加工出口區楠梓園區,工業區,楠梓區,高雄市,108-109年高雄市空氣品質感測物聯網布建計畫
9069098023,KS-8000424,Jsene/AQNA-1000,22.730699999999999,120.336399999999998,大社工業區,鄰近工業區社區,楠梓區,高雄市,108-109年高雄市空氣品質感測物聯網布建計畫
9017465481,KS-8000271,Jsene/AQNA-1000,22.791799999999999,120.292500000000004,維仁里,一般社區,岡山區,高雄市,108-109年高雄市空氣品質感測物聯網布建計畫
9068487455,KS-8000389,Jsene/AQNA-1000,22.720099999999999,120.299000000000007,加工出口區楠梓園區,鄰近工業區社區,楠梓區,高雄市,108-109年高雄市空氣品質感測物聯網布建計畫
9372516757,KS-8000319,Jsene/AQNA-1000,22.778800000000000,120.360299999999995,燕巢工業用地,鄰近工業區社區,燕巢區,高雄市,108-109年高雄市空氣品質感測物聯網布建計畫
9022892446,KS-8000360,Jsene/AQNA-1000,22.767499999999998,120.270799999999994,橋頭工業用地,鄰近工業區社區,梓官區,高雄市,108-109年高雄市空氣品質感測物聯網布建計畫
9129514588,KS-8000385,Jsene/AQNA-1000,22.712800000000001,120.300500000000000,加工出口區楠梓園區,工業區,楠梓區,高雄市,108-109年高雄市空氣品質感測物聯網布建計畫
9045329011,KS-8000274,Jsene/AQNA-1000,22.793700000000001,120.280400000000000,三和里,一般社區,岡山區,高雄市,108-109年高雄市空氣品質感測物聯網布建計畫
9019755135,KS-8000282,Jsene/AQNA-1000,22.770700000000001,120.273799999999994,橋頭工業用地,鄰近工業區社區,岡山區,高雄市,108-109年高雄市空氣品質感測物聯網布建計畫
9012597714,KS-8000316,Jsene/AQNA-1000,22.783100000000001,120.357799999999997,燕巢工業用地,鄰近工業區社區,燕巢區,高雄市,108-109年高雄市空氣品質感測物聯網布建計畫
9018752139,KS-8000345,Jsene/AQNA-1000,22.759499999999999,120.289000000000001,橋頭工業用地,鄰近工業區社區,橋頭區,高雄市,108-109年高雄市空氣品質感測物聯網布建計畫
9017377069,KS-8000269,Jsene/AQNA-1000,22.778800000000000,120.313999999999993,大遼里,一般社區,岡山區,高雄市,108-109年高雄市空氣品質感測物聯網布建計畫
9112166120,KS-8000381,Jsene/AQNA-1000,22.711700000000000,120.295500000000004,加工出口區楠梓園區,鄰近工業區社區,楠梓區,高雄市,108-109年高雄市空氣品質感測物聯網布建計畫
9069803223,KS-8000400,Jsene/AQNA-1000,22.719999999999999,120.310000000000002,市區感測點,交通區,楠梓區,高雄市,108-109年高雄市空氣品質感測物聯網布建計畫
9365765876,KS-8000303,Jsene/AQNA-1000,22.787099999999999,120.329300000000003,燕巢工業用地,鄰近工業區社區,燕巢區,高雄市,108-109年高雄市空氣品質感測物聯網布建計畫
9017661299,KS-8000304,Jsene/AQNA-1000,22.789100000000001,120.330900000000000,燕巢工業用地,鄰近工業區社區,燕巢區,高雄市,108-109年高雄市空氣品質感測物聯網布建計畫
9365130664,KS-8000307,Jsene/AQNA-1000,22.789700000000000,120.341700000000003,燕巢工業用地,鄰近工業區社區,燕巢區,高雄市,108-109年高雄市空氣品質感測物聯網布建計畫
9046001999,KS-8000188,Jsene/AQNA-1000,22.718699999999998,120.306799999999996,加工出口區楠梓園區,鄰近工業區社區,楠梓區,高雄市,108-109年高雄市空氣品質感測物聯網布建計畫
9111636174,KS-8000390,Jsene/AQNA-1000,22.723800000000001,120.299199999999999,市區感測點,交通區,楠梓區,高雄市,108-109年高雄市空氣品質感測物聯網布建計畫
9123470782,KS-8000641,Jsene/AQNA-1000,22.724570000000000,120.306680000000000,加工出口區楠梓園區,工業區,楠梓區,高雄市,108-109年高雄市空氣品質感測物聯網布建計畫
9011713717,KS-8000309,Jsene/AQNA-1000,22.791599999999999,120.345699999999994,燕巢工業用地,鄰近工業區社區,燕巢區,高雄市,108-109年高雄市空氣品質感測物聯網布建計畫
9128296439,KS-8000139,Jsene/AQNA-1000,22.723800000000001,120.306299999999993,加工出口區楠梓園區,工業區,楠梓區,高雄市,108-109年高雄市空氣品質感測物聯網布建計畫
9122144397,KS-8000382,Jsene/AQNA-1000,22.720300000000002,120.296599999999998,加工出口區楠梓園區,鄰近工業區社區,楠梓區,高雄市,108-109年高雄市空氣品質感測物聯網布建計畫
9068397006,KS-8000392,Jsene/AQNA-1000,22.727699999999999,120.305999999999997,加工出口區楠梓園區,鄰近工業區社區,楠梓區,高雄市,108-109年高雄市空氣品質感測物聯網布建計畫
9053860953,KS-8000276,Jsene/AQNA-1000,22.719700000000000,120.304100000000005,加工出口區楠梓園區,工業區,楠梓區,高雄市,108-109年高雄市空氣品質感測物聯網布建計畫
9068534673,KS-8000396,Jsene/AQNA-1000,22.715599999999998,120.313299999999998,加工出口區楠梓園區,鄰近工業區社區,楠梓區,高雄市,108-109年高雄市空氣品質感測物聯網布建計畫
9019022493,KS-8000308,Jsene/AQNA-1000,22.787600000000001,120.343699999999998,燕巢工業用地,鄰近工業區社區,燕巢區,高雄市,108-109年高雄市空氣品質感測物聯網布建計畫
9029567492,KS-8000272,Jsene/AQNA-1000,22.790600000000001,120.288399999999996,三和里,一般社區,岡山區,高雄市,108-109年高雄市空氣品質感測物聯網布建計畫
9019663533,KS-8000317,Jsene/AQNA-1000,22.720199999999998,120.300600000000003,加工出口區楠梓園區,工業區,楠梓區,高雄市,108-109年高雄市空氣品質感測物聯網布建計畫
9123722907,KS-8000477,Jsene/AQNA-1000,22.722899999999999,120.308099999999996,加工出口區楠梓園區,工業區,楠梓區,高雄市,108-109年高雄市空氣品質感測物聯網布建計畫
9015385251,KS-8000212,Jsene/AQNA-1000,22.796399999999998,120.295900000000003,岡山里,一般社區,岡山區,高雄市,108-109年高雄市空氣品質感測物聯網布建計畫
9367111233,KS-8000330,Jsene/AQNA-1000,22.753000000000000,120.354600000000005,市區感測點,一般社區,燕巢區,高雄市,108-109年高雄市空氣品質感測物聯網布建計畫
9363626535,KS-8000284,Jsene/AQNA-1000,22.715928999999999,120.317408499999999,加工出口區楠梓園區,鄰近工業區社區,楠梓區,高雄市,108-109年高雄市空氣品質感測物聯網布建計畫
9018364219,KS-8000333,Jsene/AQNA-1000,22.797200000000000,120.326300000000003,瓊林里,一般社區,燕巢區,高雄市,108-109年高雄市空氣品質感測物聯網布建計畫
9371539918,KS-8000343,Jsene/AQNA-1000,22.763200000000001,120.290199999999999,橋頭工業用地,鄰近工業區社區,橋頭區,高雄市,108-109年高雄市空氣品質感測物聯網布建計畫
9024191664,KS-8000263,Jsene/AQNA-1000,22.790400000000002,120.311700000000002,市區感測點,交通區,岡山區,高雄市,108-109年高雄市空氣品質感測物聯網布建計畫
9111131288,KS-8000595,Jsene/AQNA-1000,22.723637000000000,120.310147400000005,加工出口區楠梓園區,工業區,楠梓區,高雄市,108-109年高雄市空氣品質感測物聯網布建計畫
9110208502,KS-8000377,Jsene/AQNA-1000,22.722200000000001,120.305800000000005,加工出口區楠梓園區,工業區,楠梓區,高雄市,108-109年高雄市空氣品質感測物聯網布建計畫
9068047058,KS-8000386,Jsene/AQNA-1000,22.714300000000001,120.311000000000007,加工出口區楠梓園區,鄰近工業區社區,楠梓區,高雄市,108-109年高雄市空氣品質感測物聯網布建計畫
9069141230,KS-8000391,Jsene/AQNA-1000,22.727100000000000,120.299300000000002,加工出口區楠梓園區,鄰近工業區社區,楠梓區,高雄市,108-109年高雄市空氣品質感測物聯網布建計畫
9020247728,KS-8000335,Jsene/AQNA-1000,22.762200000000000,120.277400000000000,橋頭工業用地,鄰近工業區社區,橋頭區,高雄市,108-109年高雄市空氣品質感測物聯網布建計畫
9364742813,KS-8000280,Jsene/AQNA-1000,22.768200000000000,120.281300000000002,橋頭工業用地,鄰近工業區社區,岡山區,高雄市,108-109年高雄市空氣品質感測物聯網布建計畫
9070369603,KS-8000380,Jsene/AQNA-1000,22.723900000000000,120.292500000000004,加工出口區楠梓園區,鄰近工業區社區,楠梓區,高雄市,108-109年高雄市空氣品質感測物聯網布建計畫
9019821418,KS-8000310,Jsene/AQNA-1000,22.783600000000000,120.342600000000004,燕巢工業用地,鄰近工業區社區,燕巢區,高雄市,108-109年高雄市空氣品質感測物聯網布建計畫
9368351779,KS-8000324,Jsene/AQNA-1000,22.781900000000000,120.345500000000001,燕巢工業用地,鄰近工業區社區,燕巢區,高雄市,108-109年高雄市空氣品質感測物聯網布建計畫
9367876729,KS-8000270,Jsene/AQNA-1000,22.775400000000001,120.315299999999993,大遼里,一般社區,岡山區,高雄市,108-109年高雄市空氣品質感測物聯網布建計畫
9020669720,KS-8000322,Jsene/AQNA-1000,22.770000000000000,120.359600000000000,燕巢工業用地,鄰近工業區社區,燕巢區,高雄市,108-109年高雄市空氣品質感測物聯網布建計畫
9033130056,KS-8000314,Jsene/AQNA-1000,22.785200000000000,120.357100000000003,燕巢工業用地,鄰近工業區社區,燕巢區,高雄市,108-109年高雄市空氣品質感測物聯網布建計畫
9033388530,KS-8000311,Jsene/AQNA-1000,22.718299999999999,120.302099999999996,加工出口區楠梓園區,工業區,楠梓區,高雄市,108-109年高雄市空氣品質感測物聯網布建計畫
9033293634,KS-8000313,Jsene/AQNA-1000,22.786200000000001,120.353700000000003,燕巢工業用地,鄰近工業區社區,燕巢區,高雄市,108-109年高雄市空氣品質感測物聯網布建計畫
9366000435,KS-8000213,Jsene/AQNA-1000,22.800400000000000,120.294600000000003,岡山本洲工業區,鄰近工業區社區,岡山區,高雄市,108-109年高雄市空氣品質感測物聯網布建計畫
9121992131,KS-8000398,Jsene/AQNA-1000,22.715499999999999,120.309500000000000,加工出口區楠梓園區,鄰近工業區社區,楠梓區,高雄市,108-109年高雄市空氣品質感測物聯網布建計畫
9020368155,KS-8000337,Jsene/AQNA-1000,22.761500000000002,120.281599999999997,橋頭工業用地,工業區,橋頭區,高雄市,108-109年高雄市空氣品質感測物聯網布建計畫
9017773499,KS-8000329,Jsene/AQNA-1000,22.753699999999998,120.350700000000003,鳳雄里,一般社區,燕巢區,高雄市,108-109年高雄市空氣品質感測物聯網布建計畫
9372134326,KS-8000421,Jsene/AQNA-1000,22.732299999999999,120.326999999999998,大社工業區,鄰近工業區社區,楠梓區,高雄市,108-109年高雄市空氣品質感測物聯網布建計畫
9132604031,KS-8000107,Jsene/AQNA-1000,22.720800000000001,120.308800000000005,加工出口區楠梓園區,工業區,楠梓區,高雄市,108-109年高雄市空氣品質感測物聯網布建計畫
9122726978,KS-8000587,Jsene/AQNA-1000,22.722200000000001,120.309799999999996,加工出口區楠梓園區,工業區,楠梓區,高雄市,108-109年高雄市空氣品質感測物聯網布建計畫
9109727601,KS-8000469,Jsene/AQNA-1000,22.721900000000002,120.307199999999995,加工出口區楠梓園區,工業區,楠梓區,高雄市,108-109年高雄市空氣品質感測物聯網布建計畫
9367395989,KS-8000331,Jsene/AQNA-1000,22.753299999999999,120.359099999999998,鳳雄里,一般社區,燕巢區,高雄市,108-109年高雄市空氣品質感測物聯網布建計畫
9125959104,KS-8000326,Jsene/AQNA-1000,22.715100000000000,120.301400000000001,加工出口區楠梓園區,工業區,楠梓區,高雄市,108-109年高雄市空氣品質感測物聯網布建計畫
9019130917,KS-8000342,Jsene/AQNA-1000,22.760100000000001,120.285799999999995,橋頭工業用地,鄰近工業區社區,橋頭區,高雄市,108-109年高雄市空氣品質感測物聯網布建計畫
9367994099,KS-8000299,Jsene/AQNA-1000,22.788799999999998,120.315600000000003,大德工業區,鄰近工業區社區,燕巢區,高雄市,108-109年高雄市空氣品質感測物聯網布建計畫
9069427518,KS-8000423,Jsene/AQNA-1000,22.727900000000002,120.334400000000002,市區感測點,交通區,楠梓區,高雄市,108-109年高雄市空氣品質感測物聯網布建計畫
9068834982,KS-8000420,Jsene/AQNA-1000,22.743099999999998,120.327299999999994,大社工業區,鄰近工業區社區,楠梓區,高雄市,108-109年高雄市空氣品質感測物聯網布建計畫
9371741221,KS-8000344,Jsene/AQNA-1000,22.762599999999999,120.293599999999998,橋頭工業用地,鄰近工業區社區,橋頭區,高雄市,108-109年高雄市空氣品質感測物聯網布建計畫
9014240879,KS-8000306,Jsene/AQNA-1000,22.791399999999999,120.338099999999997,燕巢工業用地,鄰近工業區社區,燕巢區,高雄市,108-109年高雄市空氣品質感測物聯網布建計畫
9043306564,KS-8000362,Jsene/AQNA-1000,22.760999999999999,120.268699999999995,橋頭工業用地,鄰近工業區社區,梓官區,高雄市,108-109年高雄市空氣品質感測物聯網布建計畫
9371984903,KS-8000341,Jsene/AQNA-1000,22.762100000000000,120.286299999999997,橋頭工業用地,鄰近工業區社區,橋頭區,高雄市,108-109年高雄市空氣品質感測物聯網布建計畫
9018541846,KS-8000281,Jsene/AQNA-1000,22.774699999999999,120.277299999999997,橋頭工業用地,鄰近工業區社區,岡山區,高雄市,108-109年高雄市空氣品質感測物聯網布建計畫
9367618323,KS-8000300,Jsene/AQNA-1000,22.793700000000001,120.326800000000006,燕巢工業用地,鄰近工業區社區,燕巢區,高雄市,108-109年高雄市空氣品質感測物聯網布建計畫
9371346735,KS-8000350,Jsene/AQNA-1000,22.741399999999999,120.296700000000001,白樹里,一般社區,橋頭區,高雄市,108-109年高雄市空氣品質感測物聯網布建計畫
9020150026,KS-8000339,Jsene/AQNA-1000,22.763900000000000,120.284000000000006,橋頭工業用地,工業區,橋頭區,高雄市,108-109年高雄市空氣品質感測物聯網布建計畫
9020529418,KS-8000349,Jsene/AQNA-1000,22.757600000000000,120.302199999999999,白樹里,一般社區,橋頭區,高雄市,108-109年高雄市空氣品質感測物聯網布建計畫
9024374538,KS-8000318,Jsene/AQNA-1000,22.779000000000000,120.360900000000001,燕巢工業用地,鄰近工業區社區,燕巢區,高雄市,108-109年高雄市空氣品質感測物聯網布建計畫
9083719192,KS-8000669,Jsene/AQNA-1000,22.722899999999999,120.302199999999999,加工出口區楠梓園區,工業區,楠梓區,高雄市,108-109年高雄市空氣品質感測物聯網布建計畫
9119739936,KS-8000410,Jsene/AQNA-1000,22.723299999999998,120.304000000000002,加工出口區楠梓園區,工業區,楠梓區,高雄市,108-109年高雄市空氣品質感測物聯網布建計畫
9016857781,KS-8000302,Jsene/AQNA-1000,22.788900000000002,120.327699999999993,燕巢工業用地,鄰近工業區社區,燕巢區,高雄市,108-109年高雄市空氣品質感測物聯網布建計畫
9017517861,KS-8000206,Jsene/AQNA-1000,22.800100000000000,120.290400000000005,岡山本洲工業區,鄰近工業區社區,岡山區,高雄市,108-109年高雄市空氣品質感測物聯網布建計畫
9365896391,KS-8000327,Jsene/AQNA-1000,22.773499999999999,120.345799999999997,燕巢工業用地,工業區,燕巢區,高雄市,108-109年高雄市空氣品質感測物聯網布建計畫
9068736832,KS-8000393,Jsene/AQNA-1000,22.726199999999999,120.309600000000003,市區感測點,交通區,楠梓區,高雄市,108-109年高雄市空氣品質感測物聯網布建計畫
9131173279,KS-8000384,Jsene/AQNA-1000,22.714300000000001,120.299800000000005,加工出口區楠梓園區,工業區,楠梓區,高雄市,108-109年高雄市空氣品質感測物聯網布建計畫
9365091884,KS-8000283,Jsene/AQNA-1000,22.714846999999999,120.315473600000004,加工出口區楠梓園區,鄰近工業區社區,楠梓區,高雄市,108-109年高雄市空氣品質感測物聯網布建計畫
9069544220,KS-8000394,Jsene/AQNA-1000,22.723700000000001,120.313699999999997,加工出口區楠梓園區,鄰近工業區社區,楠梓區,高雄市,108-109年高雄市空氣品質感測物聯網布建計畫
9017955973,KS-8000305,Jsene/AQNA-1000,22.789999999999999,120.335300000000004,燕巢工業用地,鄰近工業區社區,燕巢區,高雄市,108-109年高雄市空氣品質感測物聯網布建計畫
9016949161,KS-8000321,Jsene/AQNA-1000,22.721200000000000,120.303500000000000,加工出口區楠梓園區,工業區,楠梓區,高雄市,108-109年高雄市空氣品質感測物聯網布建計畫
9364410244,KS-8000279,Jsene/AQNA-1000,22.769600000000001,120.281199999999998,橋頭工業用地,鄰近工業區社區,岡山區,高雄市,108-109年高雄市空氣品質感測物聯網布建計畫
9044562563,KS-8000268,Jsene/AQNA-1000,22.797200000000000,120.303899999999999,市區感測點,交通區,岡山區,高雄市,108-109年高雄市空氣品質感測物聯網布建計畫
9115746859,KS-8000367,Jsene/AQNA-1000,22.749500000000001,120.349500000000006,市區感測點,交通區,大社區,高雄市,108-109年高雄市空氣品質感測物聯網布建計畫
10372330843,KS-8001051,Jsene/AQNA-1000,22.733699999999999,120.328299999999999,環保署楠梓測站,測站比對,楠梓區,高雄市,108-109年高雄市空氣品質感測物聯網布建計畫
9368227765,KS-8000325,Jsene/AQNA-1000,22.778900000000000,120.346299999999999,燕巢工業用地,工業區,燕巢區,高雄市,108-109年高雄市空氣品質感測物聯網布建計畫
9368579512,KS-8000353,Jsene/AQNA-1000,22.762499999999999,120.318500000000000,中崎里,一般社區,橋頭區,高雄市,108-109年高雄市空氣品質感測物聯網布建計畫
9368154830,KS-8000297,Jsene/AQNA-1000,22.766800000000000,120.321899999999999,楠梓加工出口區/錦屏里,一般社區,燕巢區,高雄市,108-109年高雄市空氣品質感測物聯網布建計畫
9012159625,KS-8000351,Jsene/AQNA-1000,22.750100000000000,120.307000000000002,仕豐里,一般社區,橋頭區,高雄市,108-109年高雄市空氣品質感測物聯網布建計畫
9070076576,KS-8000422,Jsene/AQNA-1000,22.735299999999999,120.335999999999999,大社工業區,鄰近工業區社區,楠梓區,高雄市,108-109年高雄市空氣品質感測物聯網布建計畫
9080675829,KS-8000676,Jsene/AQNA-1000,22.721900000000002,120.301699999999997,加工出口區楠梓園區,工業區,楠梓區,高雄市,108-109年高雄市空氣品質感測物聯網布建計畫
9045651648,KS-8000275,Jsene/AQNA-1000,22.790099999999999,120.282399999999996,三和里,一般社區,岡山區,高雄市,108-109年高雄市空氣品質感測物聯網布建計畫
9045940296,KS-8000265,Jsene/AQNA-1000,22.789100000000001,120.298400000000001,後紅里,一般社區,岡山區,高雄市,108-109年高雄市空氣品質感測物聯網布建計畫
9071337671,KS-8000444,Jsene/AQNA-1000,22.720500000000001,120.332899999999995,北門里,交通區,仁武區,高雄市,108-109年高雄市空氣品質感測物聯網布建計畫
9123828155,KS-8000630,Jsene/AQNA-1000,22.725100000000001,120.310100000000006,加工出口區楠梓園區,工業區,楠梓區,高雄市,108-109年高雄市空氣品質感測物聯網布建計畫
9115500877,KS-8000366,Jsene/AQNA-1000,22.749199999999998,120.343500000000006,保社里,一般社區,大社區,高雄市,108-109年高雄市空氣品質感測物聯網布建計畫
9069280833,KS-8000395,Jsene/AQNA-1000,22.719000000000001,120.314700000000002,加工出口區楠梓園區,鄰近工業區社區,楠梓區,高雄市,108-109年高雄市空氣品質感測物聯網布建計畫
9382761500,KS-8000301,Jsene/AQNA-1000,22.786500000000000,120.325699999999998,燕巢工業用地,鄰近工業區社區,燕巢區,高雄市,108-109年高雄市空氣品質感測物聯網布建計畫
9366192838,KS-8000278,Jsene/AQNA-1000,22.775099999999998,120.281599999999997,橋頭工業用地,鄰近工業區社區,岡山區,高雄市,108-109年高雄市空氣品質感測物聯網布建計畫
9019413005,KS-8000348,Jsene/AQNA-1000,22.764500000000002,120.305499999999995,橋頭工業用地,鄰近工業區社區,橋頭區,高雄市,108-109年高雄市空氣品質感測物聯網布建計畫
9016436615,KS-8000298,Jsene/AQNA-1000,22.774899999999999,120.329700000000003,橋頭里,一般社區,燕巢區,高雄市,108-109年高雄市空氣品質感測物聯網布建計畫
9016209817,KS-8000267,Jsene/AQNA-1000,22.800200000000000,120.302000000000007,大德工業區,鄰近工業區社區,岡山區,高雄市,108-109年高雄市空氣品質感測物聯網布建計畫
9371615825,KS-8000340,Jsene/AQNA-1000,22.765699999999999,120.285399999999996,橋頭工業用地,工業區,橋頭區,高雄市,108-109年高雄市空氣品質感測物聯網布建計畫
9371470491,KS-8000347,Jsene/AQNA-1000,22.768000000000001,120.312200000000004,白樹里,一般社區,橋頭區,高雄市,108-109年高雄市空氣品質感測物聯網布建計畫
9369460603,KS-8000368,Jsene/AQNA-1000,22.745300000000000,120.351100000000002,大社區保社里,一般社區,大社區,高雄市,108-109年高雄市空氣品質感測物聯網布建計畫
9125687893,KS-8000718,Jsene/AQNA-1000,22.722868999999999,120.299943299999995,加工出口區楠梓園區,工業區,楠梓區,高雄市,108-109年高雄市空氣品質感測物聯網布建計畫
9365422269,KS-8000323,Jsene/AQNA-1000,22.780600000000000,120.350200000000001,燕巢工業用地,鄰近工業區社區,燕巢區,高雄市,108-109年高雄市空氣品質感測物聯網布建計畫
9011929439,KS-8000352,Jsene/AQNA-1000,22.751400000000000,120.312200000000004,仕豐里,一般社區,橋頭區,高雄市,108-109年高雄市空氣品質感測物聯網布建計畫
